<?xml version="1.0" encoding="UTF-8"?>
<ndm xmlns:xsi="http://www.w3.org/2001/XMLSchema-instance" xsi:noNamespaceSchemaLocation="https://sanaregistry.org/r/ndmxml_unqualified/ndmxml-2.0.0-master-2.0.xsd">
<omm id="CCSDS_OMM_VERS" version="2.0">
<header><CREATION_DATE/><ORIGINATOR/></header><body><segment><metadata><OBJECT_NAME>BEIDOU-3 G3 (C61)</OBJECT_NAME><OBJECT_ID>2020-040A</OBJECT_ID><CENTER_NAME>EARTH</CENTER_NAME><REF_FRAME>TEME</REF_FRAME><TIME_SYSTEM>UTC</TIME_SYSTEM><MEAN_ELEMENT_THEORY>SGP4</MEAN_ELEMENT_THEORY></metadata><data><meanElements><EPOCH>2025-01-14T15:12:56.642688</EPOCH><MEAN_MOTION>1.00273628</MEAN_MOTION><ECCENTRICITY>.0003545</ECCENTRICITY><INCLINATION>1.2059</INCLINATION><RA_OF_ASC_NODE>59.1592</RA_OF_ASC_NODE><ARG_OF_PERICENTER>303.1291</ARG_OF_PERICENTER><MEAN_ANOMALY>90.8123</MEAN_ANOMALY></meanElements><tleParameters><EPHEMERIS_TYPE>0</EPHEMERIS_TYPE><CLASSIFICATION_TYPE>U</CLASSIFICATION_TYPE><NORAD_CAT_ID>45807</NORAD_CAT_ID><ELEMENT_SET_NO>999</ELEMENT_SET_NO><REV_AT_EPOCH>1688</REV_AT_EPOCH><BSTAR>0</BSTAR><MEAN_MOTION_DOT>-.355E-5</MEAN_MOTION_DOT><MEAN_MOTION_DDOT>0</MEAN_MOTION_DDOT></tleParameters></data></segment></body></omm>
<omm id="CCSDS_OMM_VERS" version="2.0">
<header><CREATION_DATE/><ORIGINATOR/></header><body><segment><metadata><OBJECT_NAME>BEIDOU-3 G4 (C62)</OBJECT_NAME><OBJECT_ID>2023-066A</OBJECT_ID><CENTER_NAME>EARTH</CENTER_NAME><REF_FRAME>TEME</REF_FRAME><TIME_SYSTEM>UTC</TIME_SYSTEM><MEAN_ELEMENT_THEORY>SGP4</MEAN_ELEMENT_THEORY></metadata><data><meanElements><EPOCH>2025-01-14T10:12:01.656288</EPOCH><MEAN_MOTION>1.00273112</MEAN_MOTION><ECCENTRICITY>.0002792</ECCENTRICITY><INCLINATION>1.5976</INCLINATION><RA_OF_ASC_NODE>289.4953</RA_OF_ASC_NODE><ARG_OF_PERICENTER>267.7670</ARG_OF_PERICENTER><MEAN_ANOMALY>229.7920</MEAN_ANOMALY></meanElements><tleParameters><EPHEMERIS_TYPE>0</EPHEMERIS_TYPE><CLASSIFICATION_TYPE>U</CLASSIFICATION_TYPE><NORAD_CAT_ID>56564</NORAD_CAT_ID><ELEMENT_SET_NO>999</ELEMENT_SET_NO><REV_AT_EPOCH>619</REV_AT_EPOCH><BSTAR>0</BSTAR><MEAN_MOTION_DOT>-.111E-5</MEAN_MOTION_DOT><MEAN_MOTION_DDOT>0</MEAN_MOTION_DDOT></tleParameters></data></segment></body></omm>
<omm id="CCSDS_OMM_VERS" version="2.0">
<header><CREATION_DATE/><ORIGINATOR/></header><body><segment><metadata><OBJECT_NAME>BEIDOU-3 M28 (C50)</OBJECT_NAME><OBJECT_ID>2023-207A</OBJECT_ID><CENTER_NAME>EARTH</CENTER_NAME><REF_FRAME>TEME</REF_FRAME><TIME_SYSTEM>UTC</TIME_SYSTEM><MEAN_ELEMENT_THEORY>SGP4</MEAN_ELEMENT_THEORY></metadata><data><meanElements><EPOCH>2025-01-14T14:24:16.208640</EPOCH><MEAN_MOTION>1.86231991</MEAN_MOTION><ECCENTRICITY>.0003622</ECCENTRICITY><INCLINATION>55.2883</INCLINATION><RA_OF_ASC_NODE>79.8653</RA_OF_ASC_NODE><ARG_OF_PERICENTER>271.4541</ARG_OF_PERICENTER><MEAN_ANOMALY>88.5650</MEAN_ANOMALY></meanElements><tleParameters><EPHEMERIS_TYPE>0</EPHEMERIS_TYPE><CLASSIFICATION_TYPE>U</CLASSIFICATION_TYPE><NORAD_CAT_ID>58654</NORAD_CAT_ID><ELEMENT_SET_NO>999</ELEMENT_SET_NO><REV_AT_EPOCH>718</REV_AT_EPOCH><BSTAR>0</BSTAR><MEAN_MOTION_DOT>-.42E-6</MEAN_MOTION_DOT><MEAN_MOTION_DDOT>0</MEAN_MOTION_DDOT></tleParameters></data></segment></body></omm>
<omm id="CCSDS_OMM_VERS" version="2.0">
<header><CREATION_DATE/><ORIGINATOR/></header><body><segment><metadata><OBJECT_NAME>BEIDOU-3 M26 (C48)</OBJECT_NAME><OBJECT_ID>2023-207B</OBJECT_ID><CENTER_NAME>EARTH</CENTER_NAME><REF_FRAME>TEME</REF_FRAME><TIME_SYSTEM>UTC</TIME_SYSTEM><MEAN_ELEMENT_THEORY>SGP4</MEAN_ELEMENT_THEORY></metadata><data><meanElements><EPOCH>2025-01-13T20:42:17.330976</EPOCH><MEAN_MOTION>1.86231442</MEAN_MOTION><ECCENTRICITY>.000475</ECCENTRICITY><INCLINATION>55.2896</INCLINATION><RA_OF_ASC_NODE>79.8762</RA_OF_ASC_NODE><ARG_OF_PERICENTER>258.0650</ARG_OF_PERICENTER><MEAN_ANOMALY>101.9395</MEAN_ANOMALY></meanElements><tleParameters><EPHEMERIS_TYPE>0</EPHEMERIS_TYPE><CLASSIFICATION_TYPE>U</CLASSIFICATION_TYPE><NORAD_CAT_ID>58655</NORAD_CAT_ID><ELEMENT_SET_NO>999</ELEMENT_SET_NO><REV_AT_EPOCH>715</REV_AT_EPOCH><BSTAR>0</BSTAR><MEAN_MOTION_DOT>-.45E-6</MEAN_MOTION_DOT><MEAN_MOTION_DDOT>0</MEAN_MOTION_DDOT></tleParameters></data></segment></body></omm>
</ndm>