BEIDOU-3 G3             
1 45807U 20040A   25014.63398892 -.00000355  00000+0  00000+0 0  9992
2 45807   1.2059  59.1592 0003545 303.1291  90.8123  1.00273628 16885
BEIDOU-3 G4             
1 56564U 23066A   25014.42501917 -.00000111  00000+0  00000+0 0  9996
2 56564   1.5976 289.4953 0002792 267.7670 229.7920  1.00273112  6195
BEIDOU-3 M28            
1 58654U 23207A   25014.60018760 -.00000042  00000+0  00000+0 0  9997
2 58654  55.2883  79.8653 0003622 271.4541  88.5650  1.86231991  7184
BEIDOU-3 M26            
1 58655U 23207B   25013.86270059 -.00000045  00000+0  00000+0 0  9999
2 58655  55.2896  79.8762 0004750 258.0650 101.9395  1.86231442  7159
